{
    "links": {
        "self": "http://www.neowsapp.com/rest/v1/neo/3550090?api_key=iIulBulltgU6a56xZRHN4H3l9WmuAYTsLGpBGhQ2"
    },
    "id": "3550090",
    "neo_reference_id": "3550090",
    "name": "(2010 UZ7)",
    "designation": "2010 UZ7",
    "nasa_jpl_url": "http://ssd.jpl.nasa.gov/sbdb.cgi?sstr=3550090",
    "absolute_magnitude_h": 24.8,
    "estimated_diameter": {
        "kilometers": {
            "estimated_diameter_min": 0.0291443905,
            "estimated_diameter_max": 0.0651688382
        },
        "meters": {
            "estimated_diameter_min": 29.1443904535,
            "estimated_diameter_max": 65.1688382168
        },
        "miles": {
            "estimated_diameter_min": 0.018109479,
            "estimated_diameter_max": 0.0404940262
        },
        "feet": {
            "estimated_diameter_min": 95.6180819754,
            "estimated_diameter_max": 213.8085311752
        }
    },
    "is_potentially_hazardous_asteroid": false,
    "close_approach_data": [
        {
            "close_approach_date": "2010-10-17",
            "close_approach_date_full": "2010-Oct-17 23:34",
            "epoch_date_close_approach": 1287358440000,
            "relative_velocity": {
                "kilometers_per_second": "16.535906371",
                "kilometers_per_hour": "59529.2629354625",
                "miles_per_hour": "36989.1689612045"
            },
            "miss_distance": {
                "astronomical": "0.0335794176",
                "lunar": "13.0623934464",
                "kilometers": "5023409.348800512",
                "miles": "3121401.8280185856"
            },
            "orbiting_body": "Earth"
        }
    ],
    "orbital_data": {
        "orbit_id": "7",
        "orbit_determination_date": "2019-07-19 05:25:26",
        "first_observation_date": "2010-10-29",
        "last_observation_date": "2010-11-01",
        "data_arc_in_days": 3,
        "observations_used": 39,
        "orbit_uncertainty": "9",
        "minimum_orbit_intersection": ".0125798",
        "jupiter_tisserand_invariant": "3.365",
        "epoch_osculation": "2455499.5",
        "eccentricity": ".6334362799711527",
        "semi_major_axis": "2.201998466486043",
        "inclination": "5.422012847709136",
        "ascending_node_longitude": "209.2215296118858",
        "orbital_period": "1193.50418213167",
        "perihelion_distance": ".8071727493729408",
        "perihelion_argument": "112.7413963172402",
        "aphelion_distance": "3.596824183599145",
        "perihelion_time": "2455446.747426101754",
        "mean_anomaly": "15.91190620668763",
        "mean_motion": ".3016327930724285",
        "equinox": "J2000",
        "orbit_class": {
            "orbit_class_type": "APO",
            "orbit_class_description": "Near-Earth asteroid orbits which cross the Earth’s orbit similar to that of 1862 Apollo",
            "orbit_class_range": "a (semi-major axis) > 1.0 AU; q (perihelion) < 1.017 AU"
        }
    },
    "is_sentry_object": false
}